NORAD_CAT_ID,OBJECT_NAME,OBJECT_TYPE,EPOCH,MEAN_MOTION,ECCENTRICITY,INCLINATION,RA_OF_ASC_NODE,ARG_OF_PERICENTER,MEAN_ANOMALY,BSTAR,MEAN_MOTION_DOT,MEAN_MOTION_DDOT,TLE_LINE0,TLE_LINE1,TLE_LINE2,SEMIMAJOR_AXIS,PERIOD,APOGEE,PERIGEE,DECAYED
56475.0,STARLINK-5541,PAYLOAD,2023-05-26 22:00:01,15.70581756,0.0003566,69.9978,199.7729,270.3392,191.9208,-0.0065716,-0.00744193,0.0,0 STARLINK-5541,1 56475U 23064AD  23146.91668981 -.00744193  00000-0 -65716-2 0  9993,2 56475  69.9978 199.7729 0003566 270.3392 191.9208 15.70581756  1306,6735.37,91.686,359.637,354.833,0.0
56475.0,STARLINK-5541,PAYLOAD,2023-05-27 06:00:02,15.69962174,0.0003408,69.9986,198.8352,269.6236,276.4405,-0.00065058,-0.00077843,0.0,0 STARLINK-5541,1 56475U 23064AD  23147.25002315 -.00077843  00000-0 -65058-3 0  9995,2 56475  69.9986 198.8352 0003408 269.6236 276.4405 15.69962174  2977,6737.142,91.722,361.303,356.711,0.0
56475.0,STARLINK-5541,PAYLOAD,2023-05-27 22:00:00,15.69879369,0.0003276,69.9988,196.9608,267.9541,84.7392,0.00056174,0.00067752,0.0,0 STARLINK-5541,1 56475U 23064AD  23147.91667824  .00067752  00000-0  56174-3 0  9995,2 56475  69.9988 196.9608 0003276 267.9541  84.7392 15.69879369  3075,6737.379,91.727,361.451,357.037,0.0
56475.0,STARLINK-5541,PAYLOAD,2023-05-28 06:00:00,15.69974252,0.000339,69.9989,196.0236,269.3164,166.6794,-0.00076529,-0.00091429,0.0,0 STARLINK-5541,1 56475U 23064AD  23148.25001157 -.00091429  00000-0 -76529-3 0  9990,2 56475  69.9989 196.0236 0003390 269.3164 166.6794 15.69974252  1305,6737.108,91.721,361.257,356.689,0.0
56475.0,STARLINK-5541,PAYLOAD,2023-05-28 12:00:00,15.69905663,0.0003295,69.9989,195.3207,274.814,133.7204,0.00023805,0.00028486,0.0,0 STARLINK-5541,1 56475U 23064AD  23148.50001157  .00028486  00000-0  23805-3 0  9998,2 56475  69.9989 195.3207 0003295 274.8140 133.7204 15.69905663  3161,6737.304,91.725,361.389,356.949,0.0
56475.0,STARLINK-5541,PAYLOAD,2023-05-28 22:00:00,15.69867772,0.0003349,69.9991,194.149,268.1288,334.5884,0.00057743,0.00069634,0.0,0 STARLINK-5541,1 56475U 23064AD  23148.91667824  .00069634  00000-0  57743-3 0  9990,2 56475  69.9991 194.1490 0003349 268.1288 334.5884 15.69867772  1301,6737.412,91.727,361.534,357.021,0.0
56475.0,STARLINK-5541,PAYLOAD,2023-05-29 06:00:00,15.69942751,0.0003435,69.9995,193.2119,266.669,59.3315,-0.00029494,-0.00035555,0.0,0 STARLINK-5541,1 56475U 23064AD  23149.25001157 -.00035555  00000-0 -29494-3 0  9998,2 56475  69.9995 193.2119 0003435 266.6690  59.3315 15.69942751  3280,6737.198,91.723,361.377,356.749,0.0
56475.0,STARLINK-5541,PAYLOAD,2023-05-29 10:43:57,15.69933935,0.0003314,69.9989,192.6579,268.629,91.4526,0.00010082,0.00011932,0.0,0 STARLINK-5541,1 56475U 23064AD  23149.44719069  .00011932  00000-0  10082-3 0  9991,2 56475  69.9989 192.6579 0003314 268.6290  91.4526 15.69933935  3319,6737.223,91.724,361.321,356.855,0.0
56475.0,STARLINK-5541,PAYLOAD,2023-05-29 12:15:42,15.6992852,0.0003355,69.9989,192.4783,269.9454,90.1357,0.0002014,0.00024078,0.0,0 STARLINK-5541,1 56475U 23064AD  23149.51090933  .00024078  00000-0  20140-3 0  9992,2 56475  69.9989 192.4783 0003355 269.9454  90.1357 15.69928520  2978,6737.239,91.724,361.364,356.843,0.0
56475.0,STARLINK-5541,PAYLOAD,2023-05-29 19:54:28,15.69933793,0.000337,69.9989,191.5826,268.2531,91.8279,0.00019245,0.00023,0.0,0 STARLINK-5541,1 56475U 23064AD  23149.82949235  .00023000  00000-0  19245-3 0  9992,2 56475  69.9989 191.5826 0003370 268.2531  91.8279 15.69933793  3027,6737.223,91.724,361.359,356.818,0.0
56475.0,STARLINK-5541,PAYLOAD,2023-05-29 22:00:00,15.69870758,0.0003422,69.9993,191.3375,264.333,228.3673,0.00076518,0.00092611,0.0,0 STARLINK-5541,1 56475U 23064AD  23149.91667824  .00092611  00000-0  76518-3 0  9993,2 56475  69.9993 191.3375 0003422 264.3330 228.3673 15.69870758  3397,6737.404,91.727,361.574,356.963,0.0
56475.0,STARLINK-5541,PAYLOAD,2023-05-30 11:11:59,15.69944949,0.0003412,69.999,189.7909,267.3948,92.6857,0.00020461,0.00024483,0.0,0 STARLINK-5541,1 56475U 23064AD  23150.46665788  .00024483  00000-0  20461-3 0  9990,2 56475  69.9990 189.7909 0003412 267.3948  92.6857 15.69944949  3474,6737.192,91.723,361.355,356.758,0.0
56475.0,STARLINK-5541,PAYLOAD,2023-05-30 12:43:44,15.69948824,0.0003457,69.999,189.6117,266.7802,93.2998,0.00025324,0.00030379,0.0,0 STARLINK-5541,1 56475U 23064AD  23150.53037376  .00030379  00000-0  25324-3 0  9998,2 56475  69.9990 189.6117 0003457 266.7802  93.2998 15.69948824  3137,6737.18,91.723,361.374,356.716,0.0
56475.0,STARLINK-5541,PAYLOAD,2023-05-30 18:50:44,15.69937627,0.00034,69.999,188.8956,267.5578,92.5229,0.00016066,0.0001916,0.0,0 STARLINK-5541,1 56475U 23064AD  23150.78524251  .00019160  00000-0  16066-3 0  9996,2 56475  69.9990 188.8956 0003400 267.5578  92.5229 15.69937627  3527,6737.212,91.723,361.368,356.787,0.0
56475.0,STARLINK-5541,PAYLOAD,2023-05-30 20:22:30,15.69940613,0.0003404,69.9989,188.7164,267.0678,93.0128,0.00018222,0.0002177,0.0,0 STARLINK-5541,1 56475U 23064AD  23150.84895873  .00021770  00000-0  18222-3 0  9990,2 56475  69.9989 188.7164 0003404 267.0678  93.0128 15.69940613  3180,6737.204,91.723,361.362,356.776,0.0
56475.0,STARLINK-5541,PAYLOAD,2023-05-31 02:29:30,15.69933873,0.0003414,69.999,188.0001,267.9982,92.0822,0.00010678,0.00012651,0.0,0 STARLINK-5541,1 56475U 23064AD  23151.10382603  .00012651  00000-0  10678-3 0  9997,2 56475  69.9990 188.0001 0003414 267.9982  92.0822 15.69933873  3576,6737.223,91.724,361.388,356.788,0.0
56475.0,STARLINK-5541,PAYLOAD,2023-05-31 11:40:01,15.69936981,0.0003352,69.9988,186.925,267.0442,93.037,9.5093e-05,0.00011243,0.0,0 STARLINK-5541,1 56475U 23064AD  23151.48612580  .00011243  00000-0  95093-4 0  9999,2 56475  69.9988 186.9250 0003352 267.0442  93.0370 15.69936981  3289,6737.214,91.723,361.338,356.821,0.0
56475.0,STARLINK-5541,PAYLOAD,2023-05-31 14:43:31,15.69928075,0.0003358,69.9987,186.5663,268.4445,91.6366,8.2901e-05,9.769e-05,0.0,0 STARLINK-5541,1 56475U 23064AD  23151.61356038  .00009769  00000-0  82901-4 0  9991,2 56475  69.9987 186.5663 0003358 268.4445  91.6366 15.69928075  3651,6737.24,91.724,361.367,356.842,0.0
56475.0,STARLINK-5541,PAYLOAD,2023-05-31 20:50:32,15.69932778,0.0003356,69.9988,185.8502,269.4404,90.6407,7.3082e-05,8.587e-05,0.0,0 STARLINK-5541,1 56475U 23064AD  23151.86842619  .00008587  00000-0  73082-4 0  9990,2 56475  69.9988 185.8502 0003356 269.4404  90.6407 15.69932778  3346,6737.226,91.724,361.352,356.83,0.0
56475.0,STARLINK-5541,PAYLOAD,2023-06-01 02:57:32,15.69922494,0.0003382,69.9988,185.134,268.4806,91.6003,1.059e-05,1.061e-05,0.0,0 STARLINK-5541,1 56475U 23064AD  23152.12329451  .00001061  00000-0  10590-4 0  9999,2 56475  69.9988 185.1340 0003382 268.4806  91.6003 15.69922494  3733,6737.256,91.724,361.399,356.842,0.0
56475.0,STARLINK-5541,PAYLOAD,2023-06-01 10:36:18,15.69940416,0.0003375,69.9987,184.2381,267.2387,92.8423,0.00011198,0.00013282,0.0,0 STARLINK-5541,1 56475U 23064AD  23152.44187506  .00013282  00000-0  11198-3 0  9999,2 56475  69.9987 184.2381 0003375 267.2387  92.8423 15.69940416  3430,6737.204,91.723,361.343,356.796,0.0
56475.0,STARLINK-5541,PAYLOAD,2023-06-01 19:46:48,15.69932742,0.0003295,69.9985,183.1631,268.5008,91.581,7.4634e-05,8.774e-05,0.0,0 STARLINK-5541,1 56475U 23064AD  23152.82417672  .00008774  00000-0  74634-4 0  9996,2 56475  69.9985 183.1631 0003295 268.5008  91.5810 15.69932742  3494,6737.226,91.724,361.311,356.872,0.0
56475.0,STARLINK-5541,PAYLOAD,2023-06-02 09:32:35,15.69930759,0.0003399,69.9982,181.5508,263.8494,96.2314,7.8918e-05,9.29e-05,0.0,0 STARLINK-5541,1 56475U 23064AD  23153.39762877  .00009290  00000-0  78918-4 0  9992,2 56475  69.9982 181.5508 0003399 263.8494  96.2314 15.69930759  3934,6737.232,91.724,361.387,356.807,0.0
56475.0,STARLINK-5541,PAYLOAD,2023-06-02 11:04:20,15.6993428,0.0003441,69.9982,181.3718,263.9405,96.1398,9.8979e-05,0.0001171,0.0,0 STARLINK-5541,1 56475U 23064AD  23153.46134471  .00011710  00000-0  98979-4 0  9992,2 56475  69.9982 181.3718 0003441 263.9405  96.1398 15.69934280  3592,6737.222,91.724,361.405,356.769,0.0
56475.0,STARLINK-5541,PAYLOAD,2023-06-03 02:21:51,15.69924981,0.0003304,69.9982,179.5806,275.6212,84.4607,5.6769e-05,6.619e-05,0.0,0 STARLINK-5541,1 56475U 23064AD  23154.09851569  .00006619  00000-0  56769-4 0  9999,2 56475  69.9982 179.5806 0003304 275.6212  84.4607 15.69924981  4044,6737.249,91.724,361.34,356.888,0.0
56475.0,STARLINK-5541,PAYLOAD,2023-06-03 11:32:22,15.69927777,0.0003395,69.9985,178.5049,265.2211,94.8597,4.4217e-05,5.108e-05,0.0,0 STARLINK-5541,1 56475U 23064AD  23154.48081465  .00005108  00000-0  44217-4 0  9999,2 56475  69.9985 178.5049 0003395 265.2211  94.8597 15.69927777  3755,6737.241,91.724,361.393,356.818,0.0
56475.0,STARLINK-5541,PAYLOAD,2023-06-03 19:11:07,15.69928492,0.000341,69.9982,177.61,264.9208,95.1598,3.5053e-05,4.005e-05,0.0,0 STARLINK-5541,1 56475U 23064AD  23154.79939765  .00004005  00000-0  35053-4 0  9991,2 56475  69.9982 177.6100 0003410 264.9208  95.1598 15.69928492  3806,6737.239,91.724,361.401,356.806,0.0
56475.0,STARLINK-5541,PAYLOAD,2023-06-04 02:49:53,15.69924898,0.0003522,69.9983,176.7135,262.7809,97.2986,1.9643e-05,2.15e-05,0.0,0 STARLINK-5541,1 56475U 23064AD  23155.11798147  .00002150  00000-0  19643-4 0  9991,2 56475  69.9983 176.7135 0003522 262.7809  97.2986 15.69924898  4207,6737.249,91.724,361.487,356.741,0.0
56475.0,STARLINK-5541,PAYLOAD,2023-06-04 10:28:38,15.699422,0.0003688,69.9982,175.8181,262.7088,97.3689,-5.4707e-05,-6.791e-05,0.0,0 STARLINK-5541,1 56475U 23064AD  23155.43655415 -.00006791  00000-0 -54707-4 0  9993,2 56475  69.9982 175.8181 0003688 262.7088  97.3689 15.69942200  4252,6737.199,91.723,361.549,356.58,0.0
56475.0,STARLINK-5541,PAYLOAD,2023-06-04 13:32:09,15.6993077,0.000349,69.9983,175.4598,263.2704,96.8094,2.4202e-05,2.699e-05,0.0,0 STARLINK-5541,1 56475U 23064AD  23155.56399546  .00002699  00000-0  24202-4 0  9995,2 56475  69.9983 175.4598 0003490 263.2704  96.8094 15.69930770  3929,6737.232,91.724,361.448,356.746,0.0
